SL-16 R/B               
1 28353U 04021B   25208.58764418 -.00000277  00000+0 -11926-3 0  9997
2 28353  71.0023 344.8718 0004799 353.7097   6.3964 14.14552390 91006
CZ-4B R/B               
1 28415U 04035C   25208.58592262  .00007300  00000+0  29268-3 0  9997
2 28415  97.3772 240.8910 0036538  47.1002 313.3292 15.24685264145567
CZ-2C R/B               
1 28480U 04046B   25208.53680650  .00000176  00000+0  80235-4 0  9991
2 28480  98.1920 132.5862 0140915 100.5883 261.1206 14.26847651 76392
ARIANE 5 R/B            
1 28499U 04049H   25208.43422953  .00000639  00000+0  78112-4 0  9998
2 28499  98.2389   3.9195 0085239   1.8732 358.2784 14.84584644112366
CZ-2D R/B               
1 28738U 05024B   25208.58246485  .00018897  00000+0  40070-3 0  9994
2 28738  97.3676 213.2367 0008193 122.5596 237.6445 15.45080444104879
ALOS (DAICHI)           
1 28931U 06002A   25208.43623969  .00001489  00000+0  26327-3 0  9994
2 28931  98.0862 161.1603 0000774  65.7519 294.3767 14.68833916 40402
H-2A R/B                
1 28932U 06002B   25208.61357084  .00006257  00000+0  36086-3 0  9998
2 28932  98.2173 332.6260 0056828 285.0808  74.4137 15.11404165 60389
RESURS-DK 1             
1 29228U 06021A   25208.39491102  .00002221  00000+0  13842-3 0  9995
2 29228  69.9340  99.0585 0001840 132.8146 227.3174 15.11143611 53479
CZ-4B R/B               
1 29507U 06046C   25208.58697789  .00004418  00000+0  24283-3 0  9993
2 29507  97.5923 249.0973 0034301 328.0934  31.8219 15.14121486 25952
CZ-2C R/B               
1 31114U 07010B   25208.55812723  .00000121  00000+0  74856-4 0  9995
2 31114  98.3839 328.2828 0058233 228.0670 131.5535 14.20139828947765
COSMO-SKYMED 1          
1 31598U 07023A   25208.51695197  .00001843  00000+0  17563-3 0  9998
2 31598  97.8883  33.1181 0001364  79.1567 280.9806 14.94615104981249
GENESIS 2               
1 31789U 07028A   25208.57702721  .00172485  17859-4  55278-3 0  9994
2 31789  64.4676 244.0283 0025944 304.0304  55.8390 15.90277014   527
COSMOS 2428             
1 31792U 07029A   25208.61241373  .00000284  00000+0  17806-3 0  9992
2 31792  70.9443 315.8163 0005311 236.8624 123.1988 14.12893208932306
SL-16 R/B               
1 31793U 07029B   25208.59819228 -.00000193  00000+0 -75006-4 0  9998
2 31793  70.9763 285.5262 0002726 280.8221 180.5402 14.14792637933534
KORONAS-FOTON           
1 33504U 09003A   25208.33021816  .00010447  00000+0  28398-3 0  9996
2 33504  82.4345 149.0206 0009907 239.8173 120.2091 15.37358451911056
CZ-2C R/B               
1 37731U 11030B   25208.46369527  .00001446  00000+0  19211-3 0  9996
2 37731  97.8172 165.8981 0053627   4.9261 107.0144 14.80307716756765
H-2A R/B                
1 38341U 12025E   25208.58151131  .00003226  00000+0  30893-3 0  9999
2 38341  98.4377 153.5085 0045492 329.9555  29.9053 14.93225219714602
SHIJIAN-16 (SJ-16)      
1 39358U 13057A   25208.50683007  .00000784  00000+0  81133-4 0  9998
2 39358  74.9703 251.0705 0018218 298.5352  61.4001 14.91464381637924
SL-4 R/B                
1 39679U 14021B   25208.58474746  .00008099  00000+0  22161-3 0  9994
2 39679  51.6107 349.4664 0111489   6.6742 353.5693 15.32269089621683
ALOS-2                  
1 39766U 14029A   25208.56912244  .00001590  00000+0  21976-3 0  9999
2 39766  97.9231 305.3935 0001462  99.9280 260.2097 14.79469196603610
YAOGAN-29               
1 41038U 15069A   25208.61576389  .00000431  00000+0  60216-4 0  9995
2 41038  98.0337 231.2239 0002067  45.3506 314.7875 14.82677625522527
ASTRO-H (HITOMI)        
1 41337U 16012A   25208.55160884  .00003136  00000+0  19164-3 0  9998
2 41337  31.0013   7.3830 0009982 232.1437 127.8298 15.08231464518194
HXMT (HUIYAN)           
1 42758U 17034A   25208.41583011  .00003405  00000+0  19308-3 0  9996
2 42758  43.0136 185.9045 0035690 254.1188 105.5724 15.14169499448356
CZ-2C R/B               
1 43521U 18054D   25208.57001106  .00032488  00000+0  46236-3 0  9998
2 43521  35.1391  21.3827 0031960 274.6533  85.0544 15.54710302393437
SAOCOM 1A               
1 43641U 18076A   25208.47775845  .00000421  00000+0  59409-4 0  9991
2 43641  97.8893  34.8753 0001397  90.0534 270.0839 14.82153473368009
H-2A R/B                
1 43682U 18084L   25208.41834676  .00013470  00000+0  43768-3 0  9995
2 43682  98.8801  14.5922 0032195  80.0779 280.4089 15.31580310371192
SAOCOM 1B               
1 46265U 20059A   25208.57653622  .00000429  00000+0  60432-4 0  9995
2 46265  97.8897  34.0769 0001458  88.1200 272.0180 14.82162115265407
CSS (TIANHE)            
1 48274U 21035A   25208.51116141  .00021346  00000+0  28962-3 0  9998
2 48274  41.4649 136.2465 0006418 358.6781   1.4039 15.57115950242441
COSMOS 2550             
1 48865U 21056A   25208.61641526  .00005791  00000+0  18169-3 0  9992
2 48865  67.1441   1.8009 0008465 269.8020  90.2165 15.33832684228945
CZ-2C R/B               
1 52794U 22058K   25208.58761518  .00012479  00000+0  28981-3 0  9995
2 52794  50.1933  23.5578 0055145 342.1908  17.7123 15.41136005175287
GSLV R/B                
1 54149U 22138AN  25208.61609959  .00002094  00000+0  18847-3 0  9996
2 54149  87.3759 241.7192 0019792 245.8764 114.0397 14.94988334150288
XRISM                   
1 57800U 23137A   25208.54820759  .00004607  00000+0  28295-3 0  9998
2 57800  31.0024 296.3244 0007973 298.3817  61.6017 15.08425415103736
ACS3                    
1 59588U 24077B   25208.52979091  .00013147  00000+0  12564-1 0  9998
2 59588  97.4366 194.2496 0075296  46.8291 313.9127 13.79254019 63057
